[{"OBJECT_NAME":"STARLINK-30960","OBJECT_ID":"2023-183V","EPOCH":"2026-03-09T22:00:01.999584","MEAN_MOTION":15.71845093,"ECCENTRICITY":0.00290225,"INCLINATION":42.9869,"RA_OF_ASC_NODE":306.2273,"ARG_OF_PERICENTER":250.1506,"MEAN_ANOMALY":28.4078,"EPHEMERIS_TYPE":0,"CLASSIFICATION_TYPE":"U","NORAD_CAT_ID":58456,"ELEMENT_SET_NO":999,"REV_AT_EPOCH":592,"BSTAR":0.0060496308,"MEAN_MOTION_DOT":0.00921154,"MEAN_MOTION_DDOT":0},{"OBJECT_NAME":"STARLINK-11161 [DTC]","OBJECT_ID":"2024-118M","EPOCH":"2026-03-09T17:22:30.811872","MEAN_MOTION":15.69706503,"ECCENTRICITY":8.432e-5,"INCLINATION":53.1586,"RA_OF_ASC_NODE":221.4608,"ARG_OF_PERICENTER":60.027,"MEAN_ANOMALY":300.0831,"EPHEMERIS_TYPE":0,"CLASSIFICATION_TYPE":"U","NORAD_CAT_ID":60124,"ELEMENT_SET_NO":999,"REV_AT_EPOCH":9799,"BSTAR":6.076226e-6,"MEAN_MOTION_DOT":1.48e-6,"MEAN_MOTION_DDOT":0}]
